;Building Code;Address;Location Name;RangeA;lon;lat;valid_coordinates;in_brooklyn
0;K001;309 47 STREET;P.S. 001 The Bergen;1500;-73.9996623;40.6379042;True;True
1;K002;655 PARKSIDE AVENUE;Parkside Preparatory Academy;1000;-73.9515241;40.6564413;True;True
2;K003;50 JEFFERSON AVENUE;P.S. 003 The Bedford Village;750;-73.9555438449292;40.682302449999995;True;True
3;K005;820 HANCOCK STREET;P.S. 005 Dr. Ronald Mcnair;500;-73.9226032;40.6855458;True;True
4;K006;43 SNYDER AVENUE;P.S. 006;750;-73.9561111;40.6488889;True;True
5;K007;858 JAMAICA AVENUE;P.S. 007 Abraham Lincoln;1250;-73.87313338576763;40.68932475;True;True
6;K008;37 HICKS STREET;P.S. 008 Robert Fulton;1000;-73.99276080491771;40.700800900000004;True;True
7;K009;80 UNDERHILL AVENUE;P.S. 009 Teunis G. Bergen;1000;-73.9657362;40.6783215;True;True
8;K009;80 Underhill Ave;BROOKLYN EAST COLLEGIATE CHARTER SCHOOL(BN);500;-73.9657362;40.6783215;True;True
9;K010;511 7 AVENUE;Magnet School of Math, Science and Design Technolo;1250;-73.9667364066186;40.588854196323425;True;True
10;K011;419 WAVERLY AVENUE;P.S. 011 Purvis J. Behan;1000;-73.96583810763471;40.6855509;True;True
11;K012;430 HOWARD AVENUE;Ronald Edmonds Learning Center II;500;-73.9197565;40.6728542;True;True
12;K013;557 PENNSYLVANIA AVENUE;P.S. 013 Roberto Clemente;1000;-73.89327816899589;40.66392645;True;True
13;K014;2424 BATCHELDER STREET;PS 77(BROOKLYN);1000;-73.9377956;40.5934838;True;True
14;K015;71 SULLIVAN STREET;P.S. 015 Patrick F. Daly;500;-74.01195231409375;40.67693345;True;True
15;K016;157 WILSON STREET;WILLIAMSBURG COLLEGIATE CHARTER SCHOOL(BROOKLYN);750;-73.96182709405845;40.706023200000004;True;True
16;K017;208 NORTH  5 STREET;P.S. 017 Henry D. Woodworth;1000;-73.99931696385194;40.576995499999995;True;True
17;K018;101 MAUJER STREET;P.S. 018 Edward Bush;250;-73.9468991;40.71072;True;True
19;K020;225 ADELPHI STREET;P.S. 020 Clinton Hill;1000;-73.97109904546058;40.6910261;True;True
20;K021;180 CHAUNCEY STREET;P.S. 021 Crispus Attucks;750;-73.92604270728506;40.6803709;True;True
21;K022;443 ST MARKS AVENUE;P.S. 022;500;-73.96028;40.67694;True;True
22;K022;443 ST. MARKS AVENUE;443 ST MARKS AVENUE CONSOLIDATED LOCATION;1000;-73.96028;40.67694;True;True
23;K023;545 WILLOUGHBY AVENUE;P.S. 023 Carter G. Woodson;750;-73.94747129298835;40.694414300000005;True;True
24;K023 ;545 WILLOUGHBY AVENUE;Brooklyn Charter School;250;-73.94747129298835;40.694414300000005;True;True
25;K024;427 38 STREET;P.S. 024;750;-73.9996623;40.6379042;True;True
26;K025;787 LAFAYETTE AVENUE;Upper School @ P.S. 25;500;-73.94071490548063;40.691475600000004;True;True
27;K026;1014 LAFAYETTE AVENUE;P.S. 026 Jesse Owens;750;-73.9322533076923;40.69199046153846;True;True
28;K027;27 HUNTINGTON STREET;Summit Academy Charter School;750;-74.00497896557891;40.677848499999996;True;True
29;K028;1001 HERKIMER STREET;P.S. 028 The Warren Prep Academy;250;-73.9202186;40.6781614;True;True
30;K029;425 HENRY STREET;P.S. 029 John M. Harrigan;1000;-73.99766793985955;40.6868795;True;True
31;K031;75 MESEROLE AVENUE;P.S. 031 Samuel F. Dupont;750;-73.95399598250972;40.726907100000005;True;True
32;K032;317 HOYT STREET;P.S. 032 Samuel Mills Sprole;750;-73.99127362229169;40.6802926;True;True
33;K033;70 TOMPKINS AVENUE;The Urban Assembly School for the Urban Environmen;500;-73.94730064627268;40.69670995;True;True
34;K034;131 NORMAN AVENUE;P.S. 034 Oliver H. Perry;750;-73.9497692670706;40.72639205;True;True
35;K035;272 MACDONOUGH STREET;M.S. 035 Stephen Decatur;500;-73.9355312;40.6818194;True;True
36;K038;450 PACIFIC STREET;P.S. 038 The Pacific;750;-73.9828250726062;40.68495485;True;True
37;K039;417 6 AVENUE;P.S. 039 Henry Bristow;500;-73.9703214117647;40.588454;True;True
38;K040;265 RALPH AVENUE;P.S. 040 George W. Carver;750;-73.92146604408174;40.680196499999994;True;True
39;K041;411 THATFORD AVENUE;P.S. 041 Francis White;750;-73.90705321058172;40.6601813;True;True
40;K043;1401 EMMONS AVENUE;I.S. 98 Bay Academy;1500;-73.95422031017692;40.58377285;True;True
41;K044;432 MONROE STREET;P.S. 044 Marcus Garvey;500;-73.94116259619689;40.6861818;True;True
42;K045;84 SCHAEFER STREET;P.S./I.S. 045 Horace E. Greene;1000;-73.91033667385625;40.686701799999994;True;True
43;K046;100 CLERMONT AVENUE;P.S. 046 Edward C. Blum;750;-73.97165866362695;40.6945922;True;True
44;K048;6015 18 AVENUE;P.S. 048 Mapleton;750;-73.990414;40.620671;True;True
45;K049;223 GRAHAM AVENUE;Lyons Community School;1500;-73.943911;40.7098149;True;True
47;K051;350 5 AVENUE;M.S. 51 William Alexander;1250;-73.97280036464088;40.588014430939225;True;True
50;K055;2021 BERGEN STREET;Brooklyn Collegiate: A College Board School;500;-73.91352113697846;40.67449860000001;True;True
51;K055;2021 Bergen Street;ACHIEVEMENT FIRST BROWNSVILLE CHARTER SCHOOL(BN);1000;-73.91352113697846;40.67449860000001;True;True
52;K056;170 GATES AVENUE;The Urban Assembly Unison School;500;-73.96027539659976;40.684069;True;True
53;K057;125 STUYVESANT AVENUE;The Brooklyn Academy of Global Finance;500;-73.9332614;40.6917087;True;True
54;K058;330 SMITH STREET;P.S. 058 The Carroll;1000;-73.995048;40.680303;True;True
55;K059;211 THROOP AVENUE;SUCCESS ACADEMY CHARTER SCHOOL - BED-STUY 2(BN);750;-73.94348646048749;40.6975041;True;True
56;K061;400 EMPIRE BOULEVARD;M.S. 061 Dr. Gladstone H. Atwell;1000;-73.94950749185615;40.66365415;True;True
57;K062;700 CORTELYOU ROAD;J.H.S. 062 Ditmas;1500;-73.97132481406734;40.63816405;True;True
59;K067;51 SAINT EDWARDS STREET;P.S. 067 Charles A. Dorsey;500;-73.9779092;40.6950782;True;True
61;K069;6302 9TH AVENUE;P.S. 69 Vincent D. Grippo School;1000;-74.0095225;40.6323855;True;True
62;K071;215 HEYWARD STREET;Juan Morel Campos Secondary School;1000;-73.95378415472399;40.703832899999995;True;True
63;K072;605 SHEPHERD AVENUE;East New York Middle School of Excellence;1000;-73.87920550185237;40.66957195;True;True
65;K075;95 GROVE STREET;P.S. 075 Mayda Cortiella;750;-73.92114270572984;40.693164499999995;True;True
68;K081;990 DEKALB AVENUE;P.S. 081 Thaddeus Stevens;500;-73.93435685950807;40.69292515;True;True
69;K084;250 BERRY STREET;P.S. 084 Jose De Diego;750;-73.9636886258322;40.714944599999995;True;True
70;K085;510 CLERMONT AVENUE;P.S. K753 - School for Career Development;250;-73.96944346361745;40.6834798;True;True
71;K086;220 IRVING AVENUE;P.S. 086 The Irvington;500;-73.91779853620689;40.7005989;True;True
72;K088;544 7TH AVENUE;P.S. K053;2500;-73.98793069829736;40.660181050000006;True;True
74;K091;532 ALBANY AVENUE;P.S. 091 The Albany Avenue School;500;-73.94022601283055;40.661832149999995;True;True
75;K092;601 PARKSIDE AVENUE;P.S. 092 Adrian Hegeman;500;-73.9540269;40.6562148;True;True
76;K093;31 NEW YORK AVENUE;P.S. 093 William H. Prescott;500;-73.9465267;40.6787143;True;True
77;K094;5010 6 AVENUE;P.S. 094 The Henry Longfellow;1750;-73.985777;40.586668;True;True
78;K095;345 VAN SICKLEN STREET;P.S. 095 The Gravesend;1000;-73.97487355272352;40.5959595;True;True
79;K096;99 AVENUE P;SUCCESS ACADEMY CHARTER SCHOOL - BENSONHURST(BS);750;-73.9849061;40.6077255;True;True
80;K097;1855 STILLWELL AVENUE;P.S. 97 The Highlawn;1000;-73.98576368308737;40.60130265;True;True
81;K099;1120 EAST  10 STREET;P.S. 099 Isaac Asimov;1000;-74.0000606231132;40.579143349999995;True;True
82;K100;2951 WEST  3 STREET;P.S. 100 The Coney Island School;1000;-74.00012135;40.573644349999995;True;True
83;K101;2360 BENSON AVENUE;P.S. 101 The Verrazano;1000;-73.99193734256428;40.5973726;True;True
84;K102;211 72 STREET;P.S. 102 The Bayview;1500;-73.9996623;40.6379042;True;True
85;K104;9115 5 AVENUE;P.S./I.S. 104 The Fort Hamilton School;1250;-73.9362774;40.592119;True;True
86;K105;1031 59 STREET;P.S. 105 The Blythebourne;2000;-74.017881;40.641362;True;True
87;K106;1328 PUTNAM AVENUE;P.S. 106 Edward Everett Hale;750;-73.91268318152709;40.69367215;True;True
88;K107;1301 8 AVENUE;P.S. 107 John W. Kimball;750;-73.956443;40.589983;True;True
89;K108;200 LINWOOD STREET;P.S. 108 Sal Abbracciamento;1000;-73.88430974819859;40.6812771;True;True
90;K110;124 MONITOR STREET;P.S. 110 The Monitor;500;-73.94203290322326;40.7236399;True;True
91;K111;35 STARR STREET;I.S. 349 Math, Science & Tech.;1000;-73.9277778;40.7008333;True;True
92;K112;7115 15 AVENUE;P.S. 112 Lefferts Park;750;-73.9005532857143;40.613930714285715;True;True
93;K113;300 ADELPHI STREET;M.S. 113 Ronald Edmonds Learning Center;750;-73.97144651452781;40.68856045;True;True
94;K114;1077 REMSEN AVENUE;P.S. 114 Ryder Elementary;750;-73.90804035597857;40.64274715;True;True
95;K115;1500 EAST  92 STREET;P.S. 115 Daniel Mucatel School;1250;-73.9540269;40.6562148;True;True
96;K116;515 KNICKERBOCKER AVENUE;P.S. 116 Elizabeth L Farrell;750;-73.91658550299985;40.698054850000005;True;True
97;K117;300 WILLOUGHBY AVENUE;MS 596 Peace Academy;750;-73.9583387;40.6925521;True;True
98;K119;3829 AVENUE K;P.S. 119 Amersfort;500;-73.93883092505925;40.6260483;True;True
99;K120;18 BEAVER STREET;P.S. 120 Carlos Tapia;500;-73.93783847045839;40.70064215;True;True
100;K121;5301 20 AVENUE;P.S. 121 Nelson A. Rockefeller;500;-73.985026;40.61741;True;True
101;K123;100 IRVING AVENUE;P.S. 123 Suydam;1000;-73.9225745;40.7039049;True;True
102;K124;515 4 AVENUE;P.S. 124 Silas B. Dutcher;500;-73.96667056926604;40.5888610748528;True;True
103;K126;424 LEONARD STREET;Northside Charter High School;1250;-73.94779234371214;40.719763549999996;True;True
104;K127;7805 7 AVENUE;P.S. 127 Mckinley Park;750;-73.972367;40.67705;True;True
105;K128;2075 84 STREET;P.S. 128 Bensonhurst;500;-73.9634703260196;40.714940150000004;True;True
106;K130;70 OCEAN PARKWAY;P.S. 130 The Parkside;1000;-73.97591940872468;40.6488791;True;True
107;K131;4305 FT HAMILTON PARKWAY;P.S. 131 Brooklyn;1250;-73.9933334;40.6408017;True;True
108;K132;320 MANHATTAN AVENUE;P.S. 132 The Conselyea School;1000;-73.94590041536748;40.71479765;True;True
109;K135;684 LINDEN BOULEVARD;P.S. 135 Sheldon A. Brookner;750;-73.9329691722368;40.653255;True;True
110;K136;4004 4 AVENUE;Sunset Park Prep;1250;-73.989779;40.670272;True;True
111;K137;121 SARATOGA AVENUE;P.S./I.S. 137 Rachel Jean Mitchell;500;-73.91673618591065;40.68227815;True;True
112;K138;760 PROSPECT PLACE;P.S. 138 Brooklyn;750;-73.95135813183899;40.6739501;True;True
113;K139;330 RUGBY ROAD;P.S. 139 Alexine A. Fenty;1250;-73.96572959526615;40.64135435;True;True
114;K142;610 HENRY STREET;P.S. 146;1500;-74.00210945330758;40.679534000000004;True;True
115;K145;100 NOLL STREET;P.S. 145 Andrew Jackson;1000;-73.9323979;40.7014771;True;True
116;K147;325 BUSHWICK AVENUE;Young Women's Leadership School of Brooklyn;750;-73.93866618540903;40.70503765;True;True
117;K148;185 ELLERY STREET;P.S. 373 - Brooklyn Transition Center;500;-73.945277;40.6991494;True;True
118;K149;700 SUTTER AVENUE;P.S. 149 Danny Kaye;750;-73.8927570952102;40.669348;True;True
119;K150;364 SACKMAN STREET;P.S. 150 Christopher;250;-73.90504290036313;40.6686411;True;True
120;K151;763 KNICKERBOCKER AVENUE;P.S. 151 Lyndon B. Johnson;500;-73.908228;40.6933246;True;True
121;K152;2310 GLENWOOD ROAD;P.S. K315;1750;-73.9543593;40.6330674;True;True
123;K153;1970 HOMECREST AVENUE;P.S. 153 Homecrest;750;-73.96002531715402;40.6011596;True;True
124;K154;1625 11 AVENUE;The Windsor Terrace School;750;-73.95327468234429;40.590330796680256;True;True
125;K155;1355 HERKIMER STREET;P.S./ I.S. 155 Nicholas Herkimer;750;-73.9086515;40.6775317;True;True
126;K157;850 KENT AVENUE;P.S./I.S. 157 The Benjamin Franklin Health & Scien;750;-73.9596596;40.6952757;True;True
127;K158;400 ASHFORD STREET;P.S. 158 Warwick;750;-73.88522812144743;40.67261275;True;True
128;K159;2781 PITKIN AVENUE;P.S. 159 Isaac Pitkin;1000;-73.86967060950235;40.6760067;True;True
129;K160;5105 Fort Hamilton Parkway;P.S. 160 William T. Sampson;1500;-73.9990054201757;40.63693025;True;True
130;K161;330 CROWN STREET;SUCCESS ACADEMY CHARTER SCHOOL - CROWN HEIGHTS - BROOKLYN 7(BS);1000;-73.9492320286737;40.6658716;True;True
131;K162;1390 WILLOUGHBY AVENUE;J.H.S. 162 The Willoughby;500;-73.91977342485697;40.7067391;True;True
132;K163;1664 BENSON AVENUE;P.S. 748 Brooklyn School for Global Scholars;750;-74.00727734863412;40.6069325;True;True
133;K164;4211 14 AVENUE;P.S. 164 Caesar Rodney;750;-73.985777;40.586668;True;True
134;K165;76 LOTT AVENUE;P.S. 165 Ida Posner;500;-73.91097613948526;40.657184900000004;True;True
135;K166;800 VAN SICLEN AVE;Van Siclen Community Middle School;500;-73.8854448;40.6598768;True;True
136;K166 ;800 VAN SICLEN AVE;ACHIEVEMENT FIRST BROOKLYN ACADEMY CHARTER SCHOOL @ JHS 166;750;-73.8854448;40.6598768;True;True
137;K167;1025 EASTERN PARKWAY;P.S. 167 The Parkway;500;-73.93432098654321;40.669508949999994;True;True
138;K169;4305 7 AVENUE;P.S. 169 Sunset Park;1750;-73.972367;40.67705;True;True
139;K170;7109 6 AVENUE;Ralph A. Fabrizio School;1250;-73.90058187755102;40.61391197959183;True;True
140;K171;528 RIDGEWOOD AVENUE;I.S. 171 Abraham Lincoln;1000;-73.8694440552785;40.68587144999999;True;True
141;K172;825 4 AVENUE;P.S. 172 Beacon School of Excellence;750;-73.9619632;40.58937542727273;True;True
142;K174;574 DUMONT AVENUE;School of the Future Brooklyn;500;-73.89771030043299;40.6655431;True;True
143;K175;226 BRISTOL STREET;Teachers Preparatory High School;1000;-73.91208655530184;40.66552085;True;True
145;K177;346 AVENUE P;P.S. 177 The Marlboro;1000;-73.97469052486619;40.60823135;True;True
146;K178;2163 DEAN STREET;P.S. 178 Saint Clair Mckelway;500;-73.9153616552255;40.6752327;True;True
147;K179;202 AVENUE C;P.S. 179 Kensington;1000;-73.97734279935503;40.64021665;True;True
148;K180;5601 16 AVENUE;The SEEALL Academy;1750;-73.985777;40.586668;True;True
149;K181;1023 NEW YORK AVENUE;P.S. 181 Brooklyn;1250;-73.94584420597164;40.64806245;True;True
150;K183;76 RIVERDALE AVENUE;Riverdale Avenue Middle School;500;-73.91370466995458;40.659933949999996;True;True
151;K184;273 NEWPORT STREET;P.S. 184 Newport;750;-73.90485092423567;40.66025125;True;True
152;K185;8601 RIDGE BOULEVARD;P.S. 185 Walter Kassenbrock;750;-74.0334857285972;40.6236434;True;True
153;K186;7601 19 AVENUE;P.S. 186 Dr. Irving A Gladstone;1000;-73.985777;40.586668;True;True
154;K188;3314 NEPTUNE AVENUE;P.S. 188 Michael E. Berdy;750;-74.0004689;40.5765632;True;True
155;K189;1100 EAST NEW YORK AVENUE;P.S. 189 The Bilingual Center;1250;-73.92572413204178;40.66543125;True;True
156;K190;590 SHEFFIELD AVENUE;P.S. 190 Sheffield;500;-73.89478912216742;40.6622562;True;True
157;K191;1600 PARK PLACE;P.S. 191 Paul Robeson;250;-73.92421081614678;40.6718039;True;True
158;K192;4715 18 AVENUE;P.S. 192 - The Magnet School for Math and Science;750;-73.990414;40.620671;True;True
159;K193;2515 AVENUE L;P.S. 193 Gil Hodges;1000;-73.95016356998714;40.6218511;True;True
160;K194;3117 AVENUE W;P.S. 194 Raoul Wallenberg;500;-73.93430218083148;40.59741655;True;True
161;K195;131 IRWIN STREET;P.S. 195 Manhattan Beach;500;-73.94371330311279;40.58024465;True;True
162;K196;207 BUSHWICK AVENUE;P.S. 196 Ten Eyck;750;-73.93973470119195;40.70878505;True;True
164;K198;4105 FARRAGUT ROAD;P.S. 198 Brooklyn;750;-73.93720706731493;40.6373822;True;True
165;K199;1100 ELM AVENUE;P.S. 199 Frederick Wachtel;750;-73.962916;40.6164933;True;True
166;K200;1940 BENSON AVENUE;P.S. 200 Benson School;1500;-74.0015079;40.603019;True;True
167;K201;8010 12 AVENUE;J.H.S. 201 The Dyker Heights;1500;-73.985777;40.586668;True;True
168;K202;982 HEGEMAN AVENUE;P.S. 202 Ernest S. Jenkyns;750;-73.87654194996011;40.6660538;True;True
169;K203;5101 AVENUE M;P.S. 203 Floyd Bennett School;1000;-73.92592520774168;40.621857250000005;True;True
170;K204;8101 15 AVENUE;P.S. 204 Vince Lombardi;1250;-73.985777;40.586668;True;True
171;K205;6701 20 AVENUE;P.S. 205 Clarion;1250;-73.985026;40.61741;True;True
172;K206;2200 GRAVESEND NECK ROAD;P.S. 206 Joseph F Lamb;1500;-73.94883;40.597332;True;True
173;K207;4011 FILLMORE AVENUE;P.S. 207 Elizabeth G. Leary;1500;-73.9300091604076;40.613770099999996;True;True
174;K208;4801 AVENUE D;P.S. 208 Elsa Ebeling;500;-73.93065448273214;40.642451050000005;True;True
175;K209;2609 EAST  7 STREET;P.S. 209 Margaret Mead;750;-73.99840675488291;40.573526900000005;True;True
176;K210;188 ROCHESTER AVENUE;M.S. K394;750;-73.92835093704754;40.672688;True;True
178;K212;87 BAY  49 STREET;P.S. 212 Lady Deborah Moody;750;-73.9973329;40.6912288;True;True
179;K213;580 HEGEMAN AVENUE;P.S. 213 New Lots;500;-73.8903145;40.6603169;True;True
180;K214;2944 PITKIN AVENUE;P.S. 214 Michael Friedsam;1000;-73.86324331837093;40.67602355;True;True
181;K215;415 AVENUE S;P.S. 215 Morris H. Weiss;1000;-73.9700927;40.6022823;True;True
182;K216;350 AVENUE X;P.S. 216 Arturo Toscanini;750;-73.96992131622429;40.5901611;True;True
183;K217;1100 NEWKIRK AVENUE;P.S. 217 Colonel David Marcus School;1500;-73.9661368234792;40.633545100000006;True;True
184;K218;370 FOUNTAIN AVENUE;The School for Classics: An Academy of Thinkers, W;1250;-73.87436229920041;40.66993855;True;True
185;K219;1060 CLARKSON AVENUE;P.S. 219 Kennedy-King;750;-73.92277531522514;40.6590023;True;True
186;K220;4812 9TH AVENUE;J.H.S. 220 John J. Pershing;1500;-74.00086981531499;40.6408778;True;True
187;K221;791 EMPIRE BOULEVARD;P.S. 221 Toussaint L'Ouverture;500;-73.93605900498228;40.6639193;True;True
188;K222;3301 QUENTIN ROAD;P.S. 222 Katherine R. Snyder;1000;-73.93871503276874;40.6138118;True;True
189;K223;4200 16 AVENUE;Urban Assembly School for Criminal Justice;1750;-73.985777;40.586668;True;True
190;K224;757 WORTMAN AVENUE;P.S. 224 Hale A. Woodruff;750;-73.86591184962316;40.66471765;True;True
191;K225;1075 OCEAN VIEW AVENUE;P.S. K771;1500;-74.0086004;40.5801886;True;True
192;K226;6006 23 AVENUE;P.S. 226 Alfred De B.Mason;1250;-73.985777;40.586668;True;True
193;K227;6500 16 AVENUE;J.H.S. 227 Edward B. Shallow;1500;-73.985777;40.586668;True;True
194;K228;228 AVENUE S;I.S. 228 David A. Boody;1500;-73.97704195981112;40.60077885;True;True
195;K229;1400 BENSON AVENUE;P.S. 229 Dyker;1250;-74.01342549728014;40.61032405;True;True
196;K230;1 ALBEMARLE ROAD;P.S. 230 Doris L. Cohen;1500;-73.98067742131386;40.645508199999995;True;True
197;K232;905 WINTHROP STREET;Middle School of Marketing and Legal Studies;1000;-73.9289335;40.6588889;True;True
198;K233;9301 AVENUE B;P.S. 233 Langston Hughes;750;-73.91393265452892;40.65157225;True;True
200;K235;525 LENOX ROAD;P.S. 235 Lenox School;1500;-73.94069257125902;40.65519715;True;True
201;K236;6302 AVENUE U;P.S. 236 Mill Basin;750;-73.91259079871526;40.615744899999996;True;True
202;K237;50 AVENUE P;The Academy of Talented Scholars;1000;-73.986955;40.6071112;True;True
203;K238;1633 EAST  8 STREET;P.S. 238 Anne Sullivan;750;-73.99845155725134;40.57886645;True;True
204;K239;2401 NEPTUNE AVENUE;Mark Twain I.S. 239 for the Gifted & Talented;1500;-73.99265679719497;40.578664950000004;True;True
205;K240;2500 NOSTRAND AVENUE;Andries Hudde;1000;-73.94680778768401;40.62370525;True;True
206;K241;976 PRESIDENT STREET;P.S. 241 Emma L. Johnston;750;-73.96067121033443;40.66887545;True;True
208;K243;1580 DEAN STREET;P.S. 243K- The Weeksville School;500;-73.93508598148867;40.675760100000005;True;True
209;K244;5404 TILDEN AVENUE;P.S. 244 Richard R. Green;1000;-73.92540106123812;40.64792435;True;True
210;K246;72 VERONICA PLACE;M.S. 246 Walt Whitman;750;-73.9538149298336;40.64836425;True;True
211;K247;7000 21 AVENUE;P.S. 247 Brooklyn;1000;-73.985777;40.586668;True;True
212;K249;18 MARLBOROUGH ROAD;P.S. 249 The Caton;1000;-73.96635026644981;40.649552299999996;True;True
213;K250;108 MONTROSE AVENUE;P.S. 250 George H. Lindsay;1000;-73.94599172000757;40.706751749999995;True;True
215;K252;1084 LENOX ROAD;Middle School for Art and Philosophy;750;-73.9198593;40.6578814;True;True
216;K253;601 OCEANVIEW AVENUE;P.S. 253;1000;-73.96174007104202;40.580178000000004;True;True
217;K254;1801 AVENUE Y;P.S. 254 Dag Hammarskjold;1000;-73.9513840087545;40.59089055;True;True
218;K255;1866 EAST  17 STREET;P.S. 255 Barbara Reing School;1000;-73.9996623;40.6379042;True;True
219;K256;114 KOSCIUSKO STREET;P.S. 256 Benjamin Banneker;500;-73.928642;40.693241;True;True
220;K257;60 COOK STREET;P.S. 257 John F. Hylan;750;-73.9417117992337;40.7028047;True;True
221;K258;141 MACON STREET;P.S. K140;1250;-73.94559669550401;40.68191795;True;True
222;K259;7305 FT HAMILTON PARKWAY;J.H.S. 259 William Mckinley;1750;-74.01481477991291;40.62623455;True;True
223;K260;875 WILLIAMS AVENUE;The Fresh Creek School;500;-73.89437012287902;40.6541424;True;True
224;K261;314 PACIFIC STREET;P.S. 261 Philip Livingston;1000;-73.98866540653384;40.6872177;True;True
225;K262;500 MACON STREET;P.S. 262 El Hajj Malik El Shabazz Elementary Schoo;750;-73.92996973666165;40.68304795;True;True
226;K263;210 CHESTER STREET;P.S./I.S. 323;750;-73.91146393616157;40.66625475;True;True
227;K264;371 89th Street;P.S. 264 BAY RIDGE ELEMENTARY SCHOOL FOR THE ARTS;500;-74.030011;40.62099971428571;True;True
228;K265;101 PARK AVENUE;Dr. Susan S. McKinney Secondary School of the Arts;750;-73.97608127456422;40.69698295;True;True
229;K268;133 EAST  53 STREET;P.S. 268 Emma Lazarus;500;-74.014034;40.645069;True;True
230;K269;1957 NOSTRAND AVENUE;P.S. 269 Nostrand;500;-73.94786513289867;40.63756565;True;True
231;K270;241 EMERSON PLACE;P.S. 270 Johann DeKalb;750;-73.96096639666527;40.691022399999994;True;True
232;K271;1137 HERKIMER STREET;OCEAN HILL COLLEGIATE CHARTER SCHOOL(BN);1250;-73.91583509530741;40.678231249999996;True;True
233;K272;101-24 SEAVIEW AVENUE;P.S. 272 Curtis Estabrook;750;-73.8629541;40.6555372;True;True
234;K273;923 JEROME STREET;P.S. 273 Wortman;500;-73.87896336738052;40.65831435;True;True
235;K274;800 BUSHWICK AVENUE;P.S. 274 Kosciusko;750;-73.9277629;40.6946213;True;True
236;K275;985 ROCKAWAY AVENUE;Metropolitan Diploma Plus High School;750;-73.9066764;40.6557927;True;True
238;K277;2529 GERRITSEN AVENUE;P.S. 277 Gerritsen Beach;500;-73.92810818874678;40.5959851;True;True
239;K278;1925 STUART STREET;J.H.S. 278 Marine Park;1250;-73.9388683;40.6066177;True;True
241;K281;8787 24 AVENUE;I.S. 281 Joseph B Cavallaro;1250;-73.985777;40.586668;True;True
242;K282;180 6 AVENUE;P.S. 282 Park Slope;1250;-73.97343622099447;40.58794680662984;True;True
243;K284;213 OSBORN STREET;P.S. 284 Lew Wallace;750;-73.90756195105419;40.66695295;True;True
244;K285;5909 BEVERLY ROAD;I.S. 285 Meyer Levin;1000;-73.9489324;40.6451265;True;True
245;K286;2525 HARING STREET;P.S. K811 Connie Lekas School;500;-73.9389975;40.5913896;True;True
246;K287;50 NAVY STREET;P.S. 287 Bailey K. Ashford;250;-73.9809719;40.6978029;True;True
247;K288;2950 WEST  25 STREET;P.S. 288 The Shirley Tanyhill;750;-73.998091;40.660397;True;True
248;K289;900 ST MARKS AVENUE;P.S. 289 George V. Brower;750;-73.94268572563126;40.674224249999995;True;True
249;K290;135 SCHENCK AVENUE;P.S. 290 Juan Morel Campos;750;-73.88948641024123;40.678168150000005;True;True
250;K291;231 PALMETTO STREET;Math, Engineering, and Science Academy Charter Hig;1000;-73.91548106682134;40.69562085;True;True
252;K292;301 VERMONT STREET;UFT ELEMENTARY CHARTER SCHOOL(BROOKLYN) ;750;-73.8936057;40.6713428;True;True
253;K293;284 BALTIC STREET;Success Academy Charter School - Cobble Hill;1000;-73.99329318492642;40.685011450000005;True;True
254;K296;125 COVERT STREET;I.S. 296 - The Anna Gonzalez Community School;500;-73.91033179320195;40.688913400000004;True;True
255;K297;700 PARK AVENUE;P.S. 297 Abraham Stockton;500;-73.94789759704214;40.6974432;True;True
256;K298;85 WATKINS STREET;P.S. 298 Dr. Betty Shabazz;500;-73.9077196558774;40.67102145;True;True
257;K299;88 WOODBINE STREET;P.S. 299 Thomas Warren Field;500;-73.9180532;40.6910367;True;True
258;K302;350 LINWOOD STREET;Vista Academy;1500;-73.8838889;40.6766667;True;True
259;K303;501 WEST AVENUE;I.S. 303 Herbert S. Eisenberg;750;-73.97190877187123;40.5824746;True;True
260;K303;521 WEST AVENUE;Rachel Carson High School for Coastal Studies;1250;-73.97157061224489;40.58211781632653;True;True
261;K304;280 HART STREET;Young Scholars' Academy for Discovery and Explorat;500;-73.94073649598081;40.69375945;True;True
262;K305;344 MONROE STREET;Satellite East Middle School;500;-73.9452714808277;40.68579005;True;True
263;K306;970 VERMONT STREET;P.S. 306 Ethan Allen;750;-73.88629143400516;40.6551941;True;True
264;K307;209 YORK STREET;Satellite West Middle School;750;-73.98165918779881;40.70172445;True;True
265;K308;209 YORK STREET;P.S. 308 Clara Cardwell;500;-73.98165918779881;40.70172445;True;True
266;K308;616 QUINCY STREET;TEACHING FIRMS OF AMERICA PROFESSIONAL PREPARATORY CHARTER SCHOOL(BN);750;-73.93522948328686;40.6882961;True;True
267;K309;794 MONROE STREET;P.S. 309 The George E. Wibecan Preparatory Academy;1000;-73.92437489384153;40.68811325;True;True
268;K310;942 62ND STREET;The School For Future Leaders;500;-74.00756275357476;40.63225145;True;True
269;K312;7103 AVENUE T;P.S. 312 Bergen Beach;1000;-73.90927668309845;40.6219272;True;True
270;K313;283 ADAMS STREET;Urban Assembly Institute of Math and Science for Y;1000;-73.98832879336612;40.69463915;True;True
271;K314;330 59 STREET;PS 503: The School of Discovery;2000;-74.017881;40.641362;True;True
272;K316;750 CLASSON AVENUE;P.S. 316 Elijah Stroud;750;-73.96092770912671;40.67457635;True;True
273;K317;610 BALTIC STREET;P.S. 133 William A. Butler;750;-73.98064767346939;40.68039791836735;True;True
274;K318;101 WALTON STREET;I.S. 318 Eugenio Maria De Hostos;1750;-73.9482279;40.7032106;True;True
275;K319;360 KEAP STREET;P.S. 319;250;-73.95407497296418;40.7096294;True;True
276;K320;46 MCKEEVER PLACE;P.S. 375 Jackie Robinson School;1000;-73.9594512;40.6651049;True;True
277;K321;180 7 AVENUE;P.S. 321 William Penn;1500;-73.97343622099447;40.58794680662984;True;True
278;K324;800 GATES AVENUE;M.S. 267 Math, Science & Technology;1250;-73.932454;40.68819;True;True
279;K327;111 BRISTOL STREET;P.S. 327 Dr. Rose B. English;750;-73.9120848;40.6679799;True;True
280;K328;330 ALABAMA AVENUE;P.S. 328 Phyllis Wheatley;1000;-73.89840684542546;40.66778445;True;True
282;K331;7002 4TH AVENUE;PS/IS 30 Mary White Ovington;750;-73.9784973;40.6840336;True;True
283;K332;51 CHRISTOPHER AVENUE;P.S. 332 Charles H. Houston;1250;-73.90605224441892;40.67234655;True;True
284;K333;4222 4th Avenue;Sunset Park Avenues Elementary School;500;-74.0085124;40.6506653;True;True
285;K335;130 ROCHESTER AVENUE;P.S. 335 Granville T. Woods;750;-73.92819180843519;40.67444105;True;True
286;K345;111 BERRIMAN STREET;P.S. 345 Patrolman Robert Bolden;750;-73.87987786537971;40.676174;True;True
287;K346;1400 PENNSYLVANIA AVENUE;P.S. 346 Abe Stark;1000;-73.88188061978047;40.6467453;True;True
288;K356;104 SUTTER AVENUE;P.S. 156 Waverly;1250;-73.9182394;40.6658429;True;True
289;K364;1426 FREEPORT LOOP;I.S. 364 Gateway;500;-73.88095711805084;40.64631475;True;True
290;K366;965 EAST 107TH STREET;THE SCIENCE AND MEDICINE MIDDLE SCHOOL;750;-73.89176424568717;40.647414100000006;True;True
291;K369;383 STATE STREET;P.S. K369  - Coy L. Cox School;750;-73.98355146660099;40.687434800000005;True;True
293;K371;355 37 STREET;P.S. 371 - Lillian L. Rashkis;500;-73.9996623;40.6379042;True;True
294;K376;194 HARMAN STREET;P.S. 376;750;-73.920248;40.6983431;True;True
295;K377;200 WOODBINE STREET;P.S. 377 Alejandrina B. De Gautier;750;-73.91494013630094;40.6937556;True;True
296;K380;370 MARCY AVENUE;P.S. 380 John Wayne Elementary;750;-73.95346513881864;40.7018891;True;True
297;K383;1300 GREENE AVENUE;J.H.S. 383 Philippa Schuyler;1250;-73.9195423;40.6977934;True;True
298;K384;242 COOPER STREET;P.S. /I.S. 384 Frances E. Carter;750;-73.90505438519084;40.68973305;True;True
299;K390;1224 PARK PLACE;The School of Integrated Learning;1250;-73.9372224935157;40.67227315;True;True
300;K391;790 EAST NEW YORK AVENUE;New Heights Middle School;1500;-73.93645592173652;40.66199745;True;True
301;K395;1001 EAST  45 STREET;P.S. 109;750;-74.010006;40.648939;True;True
302;K396;110 CHESTER STREET;P.S. K396;500;-73.9113762;40.6679669;True;True
303;K397;490 FENIMORE STREET;P.S. 397 Foster-Laurie;500;-73.9462613125;40.658868687500004;True;True
305;K399;2707 ALBEMARLE ROAD;P.S. 399 Stanley Eugene Clark;750;-73.9519444;40.6483333;True;True
306;K400;2630 BENSON AVENUE;Life Academy High School for Film and Music;2000;-73.98621246953113;40.59353805;True;True
307;K405;2839 BEDFORD AVENUE;Midwood High School;4000;-73.9525804;40.6328096;True;True
308;K410;2800 OCEAN PARKWAY;Abraham Lincoln Yabc;3000;-73.9683394685555;40.582368;True;True
309;K415;5800 TILDEN AVENUE;New American Academy Charter School;1500;-73.9215436;40.6477763;True;True
310;K420;999 JAMAICA AVENUE;The Urban Assembly School for Collaborative Health;1750;-73.86907525829018;40.6930081;True;True
311;K422;1065 ELTON STREET;Spring Creek Community School;1000;-73.87518348979592;40.65820304081633;True;True
312;K425;3787 BEDFORD AVENUE;James Madison High School;4000;-73.94772792631059;40.610233300000004;True;True
313;K430;29 FT GREENE PLACE;Brooklyn Technical High School;4000;-73.97640887345645;40.6887573;True;True
314;K435;400 PENNSYLVANIA AVENUE;World Academy for Total Community Health High Scho;1750;-73.89513673973363;40.6669096;True;True
315;K440;883 CLASSON AVENUE;The High School for Global Citizenship;1750;-73.96033977366244;40.66994585;True;True
317;K450;850 GRAND STREET;The High School for Enterprise, Business and Techn;3000;-73.9391759;40.7118943;True;True
318;K455;1700 FULTON STREET;Research and Service High School;1500;-73.93166373603927;40.67889925;True;True
319;K458;832 MARCY AVENUE;Brownsville Collegiate Charter School;1500;-73.9475228;40.6846677;True;True
320;K460;237 7 AVENUE;Secondary School for Law;1750;-73.972367;40.67705;True;True
321;K465;911 FLATBUSH AVENUE;Science, Technology and Research Early College Hig;2500;-73.9582574;40.6495043;True;True
322;K470;600 KINGSTON AVENUE;School for Human Rights, The;1750;-73.94361849010039;40.6583284;True;True
323;K480;400 IRVING AVENUE;The Brooklyn School for Math and Research;1500;-73.9113818;40.6970899;True;True
324;K485;350 67 STREET;High School of  Telecommunication Arts and Technol;1500;-73.9996623;40.6379042;True;True
325;K486;1171 65 STREET;The Christa McAuliffe School\I.S. 187;1250;-73.9996623;40.6379042;True;True
326;K490;8301 SHORE ROAD;Fort Hamilton High School;4000;-74.0397375;40.627236;True;True
327;K495;3000 AVENUE X;Sheepshead Bay High School;1500;-73.93667411834863;40.59351635;True;True
328;K500;1600 ROCKAWAY PARKWAY;Urban Action Academy;1250;-73.8981466;40.6411019;True;True
329;K505;5800 20 AVENUE;Franklin Delano Roosevelt YABC;4000;-73.985026;40.61741;True;True
330;K515;6565 FLATLANDS AVENUE;Victory Collegiate High School;2000;-73.9175544;40.6336432;True;True
331;K520;112 SCHERMERHORN STREET;Brooklyn Frontiers High School;250;-73.9893526;40.6900156;True;True
332;K525;1600 AVENUE L;Edward R. Murrow High School;4000;-73.95896885766066;40.6197588;True;True
333;K535;1830 SHORE BOULEVARD;Leon M. Goldstein High School for the Sciences;1250;-73.93516032364317;40.580364349999996;True;True
334;K540;50 AVENUE X;John Dewey High School;2500;-73.98116657499443;40.587629;True;True
335;K554;321 PALMETTO STREET;All City Leadership Secondary School;500;-73.91320853124999;40.697455562500004;True;True
336;K564;153 35TH STREET;Sunset Park High School;1500;-74.0045642;40.6554547;True;True
337;K580;105 JOHNSON STREET;George Westinghouse Career and Technical Education;1500;-73.9856024936999;40.69544665;True;True
338;K580;105 TECH PLACE;George Westinghouse Career and Technical Education;1500;-73.9856024936999;40.69544665;True;True
339;K590;1186 CARROLL STREET;Medgar Evers College Preparatory School;1500;-73.95118485801015;40.66693295;True;True
340;K600;901 CLASSON AVENUE;Clara Barton High School;1750;-73.96172952562546;40.6690504;True;True
341;K610;50 BEDFORD AVENUE;Frances Perkins Academy;1000;-73.95340052330442;40.7222456;True;True
342;K615;1 WELLS STREET;Transit Tech Career and Technical Education High S;1250;-73.8752297;40.6785352;True;True
343;K620;25 BRIGHTON  4TH ROAD;William E. Grady Career and Technical Education Hi;750;-73.96348874041547;40.5833954;True;True
344;K625;150 ALBANY AVENUE;Paul Robeson High School;1000;-73.93930621189718;40.675933650000005;True;True
345;K650;257 NORTH  6 STREET;Williamsburg Preparatory School;2000;-73.99869956624826;40.573797049999996;True;True
346;K655;345 DEAN STREET;The Math & Science Exploratory School;1500;-73.9802603;40.6837209;True;True
347;K660;145 PENNSYLVANIA AVENUE;W. H. Maxwell Career and Technical Education High;750;-73.89602734953094;40.6737205;True;True
348;K721;8310 21ST AVENUE;Brooklyn Studio Secondary School;1000;-73.9953948;40.6050263;True;True
349;K722;64 AVENUE X;P.S. K721 - Brooklyn Occupational Training Center;750;-73.98129535602811;40.58906175;True;True
350;K728;2865 WEST 19TH STREET;Liberation Diploma Plus;250;-73.98563629884323;40.57715905;True;True
351;K735;249 EAST 17TH STREET;P.S. 245;500;-73.9630246;40.6448767;True;True
352;K763;211 8TH STREET;The Maurice Sendak Community School;250;-73.98776237084077;40.67102405;True;True
353;K778;250 HOOPER STREET;El Puente Academy for Peace and Justice;250;-73.95554066941271;40.7056467;True;True
354;K781;1053 41ST STREET;West Brooklyn Community High School;250;-73.99255826267108;40.64282825;True;True
355;K798;696 JAMAICA AVENUE;P.S. 065;750;-73.87837563158729;40.686891450000005;True;True
356;K804;347 BALTIC STREET;Cobble Hill School of American Studies;750;-73.9910292;40.6846795;True;True
357;K805;49 FLATBUSH AVENUE EXTENSION;Urban Assembly High School of Music and Art;1500;-73.9848651;40.6974003;True;True
358;K806;362 SCHERMERHORN STREET;Metropolitan Corporate Academy High School;250;-73.9796992;40.6864422;True;True
359;K807;109 BAY 14TH STREET;P.S. 163 Bath Beach;750;-74.00761786124374;40.6066057;True;True
360;K814;265 WARWICK STREET;P.S. 089 Cypress Hills;500;-73.88669291516872;40.6777282;True;True
361;K819;2057 LINDEN BOULEVARD;East New York Family Academy;500;-73.88675570069428;40.6612937;True;True
362;K824;402 EASTERN PARKWAY;W.E.B. Dubois Academic High School;250;-73.95515980867384;40.66951885;True;True
363;K825;173 CONOVER STREET;South Brooklyn Community High School;250;-74.01420467275423;40.6777929;True;True
364;K834;512 CARROLL STREET;The Children's School;750;-73.98560571410988;40.67642825;True;True
365;K843;530 STANLEY AVENUE;P.S. K004;500;-73.8888393;40.6570252;True;True
366;K845;330 18 STREET;P.S. 295;1250;-73.9996623;40.6379042;True;True
367;K849;4001 18 AVENUE;P.S. K134;750;-73.990414;40.620671;True;True
368;K852;1800 UTICA AVENUE;P.S. 326;250;-73.92825617904788;40.628422650000005;True;True
369;K857;2045 LINDEN BOULEVARD;P.S. 36;500;-73.88723945056148;40.6604378;True;True
370;K857;905 WINTHROP STREET;P.S. 36;500;-73.9289335;40.6588889;True;True
371;K860;9517 KINGS HIGHWAY;East Brooklyn Community High School;250;-73.92061002773849;40.659789599999996;True;True
372;K864;3109 NEWKIRK AVENUE;P.S. 361 East Flatbush Early Childhood School;750;-73.94691474896437;40.640373600000004;True;True
373;K865;797 BUSHWICK AVENUE;Bushwick Leaders High School for Academic Excellen;500;-73.92764577297487;40.6954245;True;True
374;K872;1461 GENEVA LOOP;IS 364 ANNEX(BN);500;-73.87895506187193;40.64627575;True;True
375;K874;227 STERLING PLACE;I.S. 340;250;-73.96978589332721;40.6762789;True;True
376;K894;1495 HERKIMER STREET;Aspirations Diploma Plus High School;250;-73.90398804781721;40.67751765;True;True
377;K902;62 PARK PLACE;P.S. K077;500;-73.9765909;40.6789125;True;True
378;K907;1150 EAST NEW YORK AVENUE;Brownsville Academy High School;250;-73.9238889;40.6661111;True;True
379;K909;561 GRAND AVENUE;ACORN Community High School;750;-73.96201007692308;40.67846746153846;True;True
380;K913;1155 DEKALB AVENUE;EBC High School for Public Service - Bushwick;750;-73.92930333980486;40.69470855;True;True
381;K914;71-77 CLINTON AVENUE;Benjamin Banneker Academy;1000;-73.9691581;40.695423999999996;True;True
382;K917;350 CONEY ISLAND AVENUE;Brooklyn College Academy;750;-73.97199601932508;40.6491768;True;True
383;K932;560 BROOK AVENUE;PASSAGES ACADEMY AT BELMONT(BN);500;-73.965174;40.588856;True;True
384;K932;631 Belmont Ave.;Passages Academy at Belmont(BN);500;-73.88610271428571;40.672109285714285;True;True
385;K971;6214 4TH AVENUE;School of Math, Science, and Healthy Living;500;-74.0203034892963;40.63949425;True;True
386;K987;1396 BROADWAY;Brooklyn High School for Law and Technology;750;-73.9208716;40.6885596;True;True
387;K994;1119 BEDFORD AVENUE;Bedford Academy High School;500;-73.95401870628382;40.68552125;True;True
388;KAGI;153 35th St.;BROOKLYN PROSPECT CHARTER SCHOOL(BS);1000;-74.0045642;40.6554547;True;True
389;KAQX;856 QUINCY STREET;BROOKLYN EXCELSIOR CHARTER SCHOOL(BN);750;-73.92512729101203;40.6897108;True;True
390;KBNU;500 19TH STREET;BROOKLYN URBAN GARDEN CHARTER SCHOOL (BS);500;-73.98256476685823;40.656257;True;True
392;KBZT;2186 MILL AVENUE;HEBREW LANGUAGE ACADEMY CHARTER SCHOOL (BS);750;-73.91429356415853;40.612209199999995;True;True
394;M001;8 HENRY STREET;P.S. 001 Alfred E. Smith;500;-73.991656;40.70050838461538;True;True
395;M002;122 HENRY STREET;P.S. 002 Meyer London;1000;-73.99336775;40.696975916666666;True;True
397;M004;500 WEST 160 STREET;P.S. 004 Duke Ellington;750;-73.97865299932116;40.7017848;True;True
403;M010;2581 7TH AVENUE;Frederick Douglass Academy;1500;-74.015424;40.632513;True;True
405;M013;1573 MADISON AVENUE;J.H.S. 013 Jackie Robinson;1250;-73.94386846938775;40.61316955102041;True;True
406;M015;333 EAST  4 STREET;P.S. 015 Roberto Clemente;250;-74.00033404976074;40.5805768;True;True
408;M019;185 1 AVENUE;Technology, Arts, and Sciences Studio;500;-73.985777;40.586668;True;True
409;M020;166 ESSEX STREET;P.S. 020 Anna Silver;750;-73.88289499999999;40.6801067;True;True
410;M022;111 COLUMBIA STREET;New Explorations into Science, Technology and Math;2000;-74.00100560105973;40.6879797;True;True
411;M025;145 STANTON STREET;School for Global Leaders;1250;-73.9365;40.584832;True;True
412;M028;475 WEST 155 STREET;P.S. 028 Wright Brothers;1000;-73.96819152014527;40.6835151;True;True
414;M033;281 9 AVENUE;P.S. 033 Chelsea Prep;750;-73.9943519;40.6463249;True;True
417;M040;319 EAST 19 STREET;P.S. 040 Augustus Saint-Gaudens;1250;-73.9996623;40.6379042;True;True
418;M041;116 WEST  11 STREET;P.S. 041 Greenwich Village;1000;-73.99916576702879;40.57777695;True;True
421;M044;100 WEST  77 STREET;The Anderson School;1500;-74.0255506;40.6295562;True;True
422;M045;2351 1ST AVENUE;HARLEM VILLAGE ACADEMIES LEADERSHIP CHARTER SCHOOL(MN);1250;-74.0214533;40.6481807;True;True
424;M047;223 EAST 23 STREET;The 47 American Sign Language & English Lower Scho;500;-73.9996623;40.6379042;True;True
429;M056;220 HENRY STREET;University Neighborhood Middle School;1500;-73.99485916666667;40.69385266666667;True;True
439;M075;735 WEST END AVENUE;P.S. 075 Emily Dickinson;1000;-73.953342;40.579267;True;True
442;M083;219 EAST 109 STREET;The Bilingual Bicultural School;1000;-73.97385994833718;40.68120015;True;True
443;M084;32 WEST  92 STREET;P.S. 084 Lillian Weber;750;-73.9540269;40.6562148;True;True
446;M089;201 WARREN STREET;P.S. 89;1000;-73.99514472;40.687292920000004;True;True
448;M092;222 WEST 134 STREET;P.S. 092 Mary McLeod Bethune;500;-73.9244302;40.6894457;True;True
450;M096;216 EAST 120 STREET;P.S. 096 Joseph Lanzetta;750;-73.96968895555636;40.5902115;True;True
457;M107;1680 LEXINGTON AVENUE;Heritage School, The;500;-73.960877;40.6865299;True;True
458;M108;1615 MADISON AVENUE;P.S. 108 Assemblyman Angelo Del Toro Educational C;750;-73.94322675298106;40.6127369;True;True
460;M111;440 WEST  53 STREET;P.S. 111 Adolph S. Ochs;750;-74.014034;40.645069;True;True
462;M113;240 WEST 113 STREET;STEM Institute of Manhattan;250;-73.97545248590622;40.65118435;True;True
463;M114;331 EAST 91ST STREET;East Side Middle School;500;-73.92343275100474;40.657445100000004;True;True
465;M116;210 EAST  33 STREET;P.S. 116 Mary Lindley Murray;750;-73.9776703;40.6870231;True;True
467;M118;154 WEST  93 STREET;P.S. 333 Manhattan School for Children;1250;-73.88598544999999;40.5794282;True;True
472;M125;433 WEST 123 STREET;KIPP STAR College Prep Charter School;1750;-73.94384880000001;40.64449995;True;True
473;M126;80 CATHERINE STREET;P.S. 126 Jacob August Riis;1000;-73.93720400000001;40.714283529411766;True;True
479;M133;2121 5 AVENUE;P.S. 133 Fred R Moore;500;-73.94844771428572;40.59085987755102;True;True
480;M134;293 EAST BROADWAY;P.S. 137 John L. Bernstein;750;-73.958049875;40.708569499999996;True;True
482;M137;327 CHERRY STREET;P.S. 184m Shuang Wen;750;-73.9373596;40.7238362;True;True
483;M140;123 RIDGE STREET;P.S. 140 Nathan Straus;500;-73.9996623;40.6379042;True;True
484;M142;100 ATTORNEY STREET;P.S. 142 Amalia Castro;500;-73.9230582;40.6495153;True;True
486;M144;134 WEST 122 STREET;P.S. 242 - The Young Diplomats Magnet Academy;750;-73.9733333;40.6322222;True;True
491;M154;250 WEST 127 STREET;P.S. 154 Harriet Tubman;500;-73.9758333;40.6275;True;True
495;M163;163 WEST  97 STREET;P.S. 163 Alfred E. Smith;750;-74.00747519936962;40.606752;True;True
497;M165;234 WEST 109 STREET;P.S. 165 Robert E. Simon;1250;-73.95512566963265;40.6045838;True;True
498;M166;132 WEST  89 STREET;P.S. 166 The Richard Rodgers School of The Arts an;750;-73.94566597324749;40.714745050000005;True;True
501;M171;19 EAST 103 STREET;P.S. 171 Patrick Henry;1250;-73.9996623;40.6379042;True;True
504;M176;4862 BROADWAY;Muscota;750;-73.943825;40.701862;True;True
509;M187;349 CABRINI BOULEVARD;P.S./I.S. 187 Hudson Cliffs;1000;-74.0081785964725;40.60997655;True;True
513;M191;210 WEST  61 STREET;P.S. 191 Amsterdam;750;-73.97307918988574;40.6928006;True;True
517;M197;2230 5 AVENUE;P.S. 197 John B. Russwurm;500;-73.94742610204081;40.59080689795918;True;True
518;M198;1700 3 AVENUE;P.S. 77 Lower Lab School;1000;-73.952682;40.590229;True;True
519;M199;270 WEST  70 STREET;P.S. 199 Jessie Isador Straus;1000;-73.8854201778374;40.5860023;True;True
520;M200;2589 7 AVENUE;P.S. 200- The James Mccune Smith School;750;-73.94425320408163;40.59132185714286;True;True
524;M218;4600 BROADWAY;Middle School 322;1250;-73.943825;40.701862;True;True
525;M223;71-111 CONVENT AVE;The Mott Hall School;500;-73.95486607275396;40.714731;True;True
527;M263;202 SHERMAN AVE;Washington Heights Academy;750;-73.97432914285714;40.653280342857144;True;True
528;M267;213 EAST 63RD STREET;East Side Elementary School, PS 267;500;-74.02412238969585;40.6416564824812;True;True
530;M276;55 BATTERY PLACE;P.S. M094;1500;-74.02296458064517;40.61766564516129;True;True
531;M281;425 EAST 35TH STREET;The River School;250;-73.9439374;40.644696;True;True
532;M282;26 BROADWAY;Urban Assembly School of Business for Young Women,;1500;-73.9679113;40.710565;True;True
534;M340;590 SIXTH AVENUE;Sixth Avenue Elementary School;250;-73.97670595149191;40.67676455;True;True
537;M440;351 WEST  18 STREET;Quest to Learn;2500;-73.9996623;40.6379042;True;True
538;M445;350 GRAND STREET;Urban Assembly Academy of Government and Law, The;2000;-73.9562942;40.7124752;True;True
539;M446;200 MONROE STREET;University Neighborhood High School;500;-73.9513850279454;40.685242099999996;True;True
540;M451;250 WEST  18 STREET;Liberty High School Academy for Newcomers;500;-73.9758333;40.6275;True;True
541;M460;40 IRVING PLACE;Washington Irving Yabc;2500;-73.9600871764706;40.68388194117647;True;True
542;M465;549 AUDUBON AVENUE;The College Academy;3000;-73.9652545;40.6607659;True;True
543;M470;145 WEST  84 STREET;The Urban Assembly School for Green Careers;1500;-73.93231160195057;40.7014468;True;True
544;M475;345 EAST  15TH STREET;P.S. M226;2500;-73.96440651612903;40.641669096774194;True;True
551;M495;230 EAST 105 STREET;Park East High School;500;-73.8990872;40.6512183;True;True
552;M501;2005 MADISON AVENUE;The Urban Assembly School for Global Commerce;1250;-73.94766693167179;40.610507999999996;True;True
553;M506;140 WEST 102 STREET;Edward A. Reynolds West Side High School;750;-74.0190652;40.641732450000006;True;True
555;M520;411 PEARL STREET;Urban Assembly Maker Academy;1750;-73.9883400289496;40.69159547235746;True;True
558;M540;443 WEST 135 STREET;A. Philip Randolph Campus High School;1500;-73.88875439236973;40.58180885;True;True
560;M615;131 AVENUE OF THE AMERICAS;NYC iSchool;1000;-73.9166275;40.7025063;True;True
561;M620;111 EAST  33RD STREET;Unity Center for Urban Technologies;2500;-74.004271;40.65706;True;True
563;M641;16 CLARKSON STREET;High School M560 - City As School;750;-73.95907857043161;40.654707650000006;True;True
567;M661;240 2 AVENUE;Manhattan Comprehensive Night and Day High School;1000;-73.97321180110497;40.58797067403315;True;True
568;M751;113 EAST  4TH STREET;Manhattan School for Career Development;250;-73.97746505;40.64987735;True;True
570;M812;240 CONVENT AVE;High School for Mathematics, Science and Engineeri;500;-73.95486607275396;40.714731;True;True
574;M833;100 TRINITY PLACE;High School of Economics and Finance;1000;-73.99272606587473;40.6945862;True;True
576;M834;850 10TH AVENUE;Independence High School;500;-73.9813325;40.6557216;True;True
579;M841;466 WEST END AVENUE;P.S. M811 - Mickey Mantle School;500;-73.953342;40.579267;True;True
582;M873;43 WEST  22 STREET;Manhattan Village Academy;500;-73.9996623;40.6379042;True;True
583;M874;55 EAST  25 STREET;Baruch College Campus High School;500;-73.998091;40.660397;True;True
586;M883;34 WEST  14 STREET;Legacy School for Integrated Studies;500;-73.99957079533823;40.5788288;True;True
587;M894;90 TRINITY PLACE;Leadership and Public Service High School;750;-73.99272606587473;40.6945862;True;True
589;M895;105 EAST 106TH STREET;Young Women's Leadership School;500;-73.8924604;40.6466081;True;True
591;M898;4124 9 AVENUE;P.S. 018 Park Terrace;500;-73.9943519;40.6463249;True;True
592;M905;890 BROADWAY;Ballet Tech, NYC Public School for Dance;250;-73.93726333333333;40.69801133333333;True;True
593;M911;22 EAST 128 STREET;Harlem Renaissance High School;500;-73.9996623;40.6379042;True;True
598;M933;425 WEST 33RD STREET;M.S. 260 Clinton School Writers & Artists;500;-73.9991284;40.5726989;True;True
603;Q002;75-10 21 AVENUE;P.S. 002 Alfred Zimberg;750;-73.98550221276597;40.586612329787236;True;True
604;Q003;108-55 69 AVENUE;The Academy for Excellence through the Arts;250;-73.8845805;40.6812143;True;True
607;Q008;108-35 167 STREET;York Early College Academy;1500;-73.8977851;40.6536338;True;True
608;Q009;58-74 57 STREET;P.S. 009;750;-73.99552423407575;40.680335;True;True
609;Q010;45-11 31ST AVE;I.S. 010 Horace Greeley;1000;-73.99395276923076;40.60047169230769;True;True
610;Q011;54-25 SKILLMAN AVENUE;P.S. 011 Kathryn Phelan;1500;-73.949424;40.715397;True;True
611;Q012;42-00 72 STREET;P.S. 012 James B. Colgate;1500;-73.97256017526493;40.70082505;True;True
613;Q014;107-01 OTIS AVENUE;P.S. 014 Fairview;2000;-73.9326197914352;40.706070600000004;True;True
614;Q015;121-15 LUCAS STREET;P.S. 015 Jackie Robinson;500;-73.9539759;40.729851;True;True
616;Q018;86-35 235 COURT;P.S. 018 Winchester;750;-74.0282979;40.622811;True;True
617;Q019;98-02 ROOSEVELT AVENUE;P.S. 019 Marino Jeantet;2500;-73.998877;40.656731;True;True
621;Q023;138-11 35 AVENUE;Queens Academy High School;500;-73.9505223;40.7060665;True;True
622;Q024;141-11 HOLLY AVENUE;P.S. 024 Andrew Jackson;1250;-73.870688;40.666602;True;True
627;Q030;126-10 BEDELL STREET;PS 354;750;-73.911877;40.642789;True;True
630;Q033;91-37 222 STREET;P.S. 033 Edward M. Funk;1250;-73.9244302;40.6894457;True;True
634;Q037;179-37 137 AVENUE;Cynthia Jenkins School;750;-73.9168823;40.6822761;True;True
635;Q038;135-21 241 STREET;P.S. 038 Rosedale;250;-73.93297392117643;40.653157300000004;True;True
636;Q040;109-20 UNION HALL STREET;P.S. 040 Samuel Huntington;750;-73.98009160984866;40.67604205;True;True
640;Q045;126-28 150 STREET;P.S. 045 Clarence Witherspoon;500;-73.94815100928409;40.72013815;True;True
641;Q046;64-45 218 STREET;P.S. 046 Alley Pond;750;-73.9910724;40.6868341;True;True
643;Q049;63-60 80th Street;P.S. 049 Dorothy Bonawit Kole;1250;-74.03706426470588;40.62976647058824;True;True
645;Q051;87-45 117 STREET;P.S. 051;500;-73.9282467;40.7063481;True;True
648;Q054;86-02 127 STREET;P.S. 054 Hillside;750;-74.0187509;40.6234375;True;True
651;Q058;72-24 GRAND AVENUE;P.S. 58 - The School of Heroes;1250;-73.964549;40.695539;True;True
653;Q060;91-02 88 AVENUE;P.S. 060 Woodhaven;1500;-73.98793069829736;40.660181050000006;True;True
654;Q061;98-50 50 AVENUE;I.S. 061 Leonardo Da Vinci;2500;-73.97374292817679;40.58791418784531;True;True
655;Q062;97-25 108 STREET;P. S. 62 - Chester Park School;1000;-73.8977851;40.6536338;True;True
656;Q063;90-15 SUTTER AVENUE;P.S. 063 Old South;1500;-73.918834;40.66578128571429;True;True
659;Q067;51-60 MARATHON PARKWAY;J.H.S. 067 Louis Pasteur;1000;-74.02660261297032;40.6335857;True;True
661;Q069;77-02 37 AVENUE;P.S. 069 Jackson Heights;1250;-74.0255506;40.6295562;True;True
662;Q070;30-45 42 STREET;P.S. 070 Queens;1250;-73.9996623;40.6379042;True;True
667;Q075;16-66 HANCOCK STREET;Robert E. Peary School;750;-73.95517184615385;40.68185876923077;True;True
668;Q076;36-36 10 STREET;P.S. 076 William Hallet;750;-73.9996623;40.6379042;True;True
669;Q079;147-27 15 DRIVE;P.S. 079 Francis Lewis;1250;-73.9251113;40.7005166;True;True
670;Q080;171-05 137 AVENUE;P.S. 080 Thurgood Marshall Magnet;750;-73.9168823;40.6822761;True;True
672;Q081;559 CYPRESS AVENUE;P.S. 81Q Jean Paul Richter;1250;-73.9199543;40.7082516;True;True
673;Q082;88-02 144 STREET;P.S. 082 Hammond;750;-73.92017130991405;40.673093800000004;True;True
674;Q084;22-45 41 STREET;P.S. 084 Steinway;500;-73.9996623;40.6379042;True;True
675;Q085;23-70 31 STREET;P.S. 085 Judge Charles Vallone;750;-73.9996623;40.6379042;True;True
677;Q087;67-54 80 STREET;P.S. / I.S. 087 Middle Village;750;-73.97763094013354;40.69501545;True;True
681;Q091;68-10 CENTRAL AVE;P.S. 091 Richard Arkwright;1000;-73.9303525;40.70093275;True;True
685;Q096;130-01 ROCKAWAY BOULEVARD;P.S. 096;500;-73.9110911111111;40.679001444444445;True;True
687;Q098;40-20 235 STREET;P.S. 098 The Douglaston School;250;-73.9996623;40.6379042;True;True
690;Q101;2 RUSSELL PLACE;P.S. 101 School in the Gardens;750;-73.943588;40.720793;True;True
695;Q107;167-02 45 AVENUE;P.S. 107 Thomas A Dooley;1000;-74.010006;40.648939;True;True
698;Q111;37-15 13 STREET;P.S. 111 Jacob Blackwell;500;-73.9996623;40.6379042;True;True
700;Q113;78-23 87TH STREET;P.S./I.S. 113 Anthony J. Pranzo;1000;-74.03742865217392;40.62408104347826;True;True
702;Q115;80-51 261 STREET;P.S. 115 The James J. Ambrose School;750;-73.9530707;40.7168801;True;True
708;Q121;126-10 109 AVENUE;P.S. 121 Queens;1000;-73.95399598250972;40.726907100000005;True;True
709;Q122;21-21 DITMARS BOULEVARD;P.S. 122 Mamie Fay;1500;-73.93365771428572;40.696507918367345;True;True
710;Q123;145-01 119 AVENUE;P.S. 123;750;-73.938726772232;40.625979799999996;True;True
711;Q124;129-15 150 AVENUE;P.S. 124 Osmond A Church;1500;-73.90504290036313;40.6686411;True;True
712;Q125;46-02 47 AVENUE;I.S. 125 Thom J. McCann Woodside;1750;-73.97149594081063;40.6731384;True;True
714;Q127;98-01 25 AVENUE;P.S. 127 Aerospace Science Magne;1500;-73.9867923;40.5976945;True;True
715;Q129;128-02 7 AVENUE;P.S. 129 Patricia Larkin;1250;-73.972367;40.67705;True;True
716;Q130;200-01 42 AVENUE;P.S. 130;500;-73.97587867040295;40.69849525;True;True
718;Q132;132-15 218 STREET;P.S. 132 Ralph Bunche;500;-73.94566597324749;40.714745050000005;True;True
719;Q133;248-05 86 AVENUE;P.S. 133 Queens;500;-74.0282979;40.622811;True;True
720;Q134;203-02 109 AVENUE;P.S. 134 Hollis;500;-73.92592520774168;40.621857250000005;True;True
728;Q142;142-10 LINDEN BOULEVARD;Queens Transition Center;500;-73.95353716666666;40.65236108333333;True;True
729;Q143;34-74 113 STREET;P.S. 143 Louis Armstrong;2000;-73.97144651452781;40.68856045;True;True
732;Q146;98-01 159 AVENUE;P.S. 146 Howard Beach;750;-73.86967060950235;40.6760067;True;True
733;Q147;218-01 116 AVENUE;PS/MS 147 Ronald McNair;750;-73.91658550299985;40.698054850000005;True;True
734;Q148;89-02 32 AVENUE;P.S. 148 Queens;1250;-74.0063459100341;40.680312799999996;True;True
736;Q150;40-01 43 AVENUE;P.S. 150 Queens;1250;-73.985777;40.586668;True;True
738;Q152;33-52 62 STREET;P.S. 152 Gwendoline N. Alleyne School;1500;-73.996895;40.626472;True;True
739;Q153;60-02 60 LANE;P.S. 153 Maspeth Elem;1500;-73.99218141009263;40.70291915;True;True
741;Q155;130-02 115 AVENUE;P.S. 155;750;-73.8982132821514;40.63485025;True;True
742;Q156;229-02 137 AVENUE;Queens United Middle School;750;-73.9168823;40.6822761;True;True
750;Q164;138-01 77 AVENUE;P.S. 164 Queens Valley;750;-74.0255506;40.6295562;True;True
751;Q165;70-35 150 STREET;P.S. 165 Edith K. Bergtraum;1000;-73.90504290036313;40.6686411;True;True
752;Q166;33-09 35 AVENUE;P.S. 166 Henry Gradstein;1500;-73.9776703;40.6870231;True;True
753;Q168;158-40 76 ROAD;Queens School of Inquiry, The;1500;-73.88522812144743;40.67261275;True;True
759;Q175;64-35 102 STREET;P.S. 175 The Lynn Gross Discovery School;1000;-73.9910724;40.6868341;True;True
760;Q176;120-45 235 STREET;P.S. 176 Cambria Heights;750;-73.94069257125902;40.65519715;True;True
767;Q184;163-15 21 ROAD;P.S. 184 Flushing Manor;750;-74.00747519936962;40.606752;True;True
768;Q185;147-26 25 DRIVE;J.H.S. 185 Edward Bleeker;1750;-73.9387679;40.7048015;True;True
769;Q186;252-12 72 AVENUE;P.S. Q224;1000;-73.88603033362068;40.665163699999994;True;True
772;Q190;68-17 AUSTIN STREET;J.H.S. 190 Russell Sage;1250;-73.96423657940696;40.71873135;True;True
774;Q192;109-89 204 STREET;Pathways College Preparatory School: A College Boa;1250;-74.00613335;40.61354285;True;True
775;Q193;152-20 11 AVENUE;P.S. 193 Alfred J. Kennedy;750;-73.97354095027625;40.58793566850829;True;True
776;Q194;154-60 17 AVENUE;J.H.S. 194 William Carr;1250;-73.97353346961326;40.5879364640884;True;True
777;Q195;253-50 149 AVENUE;P.S. 195 William Haberle;750;-73.96196068275995;40.580236299999996;True;True
784;Q202;138-30 LAFAYETTE STREET;Robert H. Goddard High School of Communication Art;1750;-73.971871;40.687428;True;True
787;Q205;75-25 BELL BOULEVARD;P.S. 205 Alexander Graham Bell;500;-73.9149553;40.6104833;True;True
789;Q207;159-15 88 STREET;P.S. 207 Rockwood Park;1000;-73.9283142;40.6152808;True;True
790;Q208;74-30 COMMONWEALTH BLVD;P.S. / I.S. 208;750;-73.9877442;40.6672125;True;True
791;Q209;16-10 UTOPIA PARKWAY;P.S. 209 Clearview Gardens;750;-73.937328;40.6984911;True;True
798;Q217;85-05 144 STREET;J.H.S. 217 Robert A. Van Wyck;1750;-73.92017130991405;40.673093800000004;True;True
801;Q221;57-40 MARATHON PARKWAY;P.S. 221 The North Hills School;750;-74.02660261297032;40.6335857;True;True
802;Q222;86-15 37 AVENUE;P.S. Q222 - Fire Fighter Christopher A. Santora Sc;500;-74.0282979;40.622811;True;True
805;Q226;121-10 ROCKAWAY BOULEVARD;J.H.S. 226 Virgil I. Grissom;1500;-73.91086463636363;40.67896136363636;True;True
807;Q228;32-63 93 STREET;P.S. 228 Early Childhood Magnet School of the Arts;500;-73.99143965479237;40.680283700000004;True;True
811;Q232;153-23 83 STREET;P.S. 232 Lindenwood;1250;-73.96197942361478;40.5984459;True;True
815;Q238;88-15 182 STREET;I.S. 238 - Susan B. Anthony Academy;1750;-73.98793069829736;40.660181050000006;True;True
816;Q239;17-15 WEIRFIELD STREET;P.S. 239;750;-73.91567718658483;40.68658651988887;True;True
817;Q242;29-66 137 STREET;P.S. 242 Leonard P. Stavisky Early Childhood Schoo;500;-73.99741384097194;40.686860249999995;True;True
818;Q244;137-20 FRANKLIN AVENUE;The Active Learning Elementary School;500;-73.9579749375;40.694806406249995;True;True
820;Q247;69-10 65th Drive;P.S. 128 The Lorraine Tuzzo, Juniper Valley Elemen;1000;-73.983668;40.615185;True;True
822;Q253;1307 CENTRAL AVENUE;P.S. 253;750;-73.9266436;40.6979465;True;True
823;Q254;84-40 101 STREET;P.S. 254 - The Rosa Parks School;750;-73.9634703260196;40.714940150000004;True;True
824;Q260;40-20 100TH STREET;Pioneer Academy;1000;-74.0343;40.6131544;True;True
826;Q263;222-14 JAMAICA AVENUE;P.S./I.S. 295;750;-73.8921570909091;40.680554;True;True
827;Q266;74-10 COMMONWEALTH BOULEVARD;P.S. / I.S. 266;750;-73.9877442;40.6672125;True;True
828;Q268;92-07 175 STREET;PS/IS 268;750;-73.91208655530184;40.66552085;True;True
829;Q269;86-37 53RD AVENUE;Elm Tree Elementary School;250;-74.01970328571429;40.64792885714286;True;True
832;Q276;108-29 155 STREET;P.S. 048 William Wordsworth;750;-73.8977851;40.6536338;True;True
834;Q280;34-20 94TH STREET;P.S. 280;750;-74.03832633333333;40.61806733333333;True;True
835;Q287;110-08 NORTHERN BOULEVARD;P.S. 330;750;-73.9485715;40.7139985;True;True
836;Q290;55-20 METROPOLITAN AVENUE;A.C.E. Academy for Scholars at the Geraldine Ferra;750;-73.96444241666667;40.717461416666666;True;True
838;Q313;45-45 42ND STREET;The Children's Lab School;250;-74.01481087755103;40.65522942857143;True;True
839;Q316;90-07 101ST AVENUE;Queens Explorers Elementary School;500;-73.86359245918368;40.67937448979592;True;True
840;Q329;26-25 97TH STREET;East Elmhurst Community School;250;-74.03102;40.6143531;True;True
842;Q404;1-50 51ST AVENUE;The Riverview School;1250;-73.930343;40.6621;True;True
847;Q425;63-25 MAIN STREET;John Bowne High School;4000;-73.990642004862;40.702963917346025;True;True
848;Q430;58-20 UTOPIA PARKWAY;Francis Lewis High School;4000;-73.937328;40.6984911;True;True
849;Q435;230-17 HILLSIDE AVENUE;Martin Van Buren High School;2500;-73.9838167;40.6529924;True;True
850;Q440;67-01 110 STREET;Forest Hills High School;4000;-73.99;40.6908333;True;True
854;Q452;14-30 BROADWAY;Long Island City High School;3000;-73.96814499999999;40.710694857142855;True;True
857;Q460;35-01 UNION STREET;Veritas Academy;4000;-74.00446086666666;40.684885099999995;True;True
858;Q465;8-21 BAY 25 STREET;Queens High School for Information, Research, and;1750;-73.998091;40.660397;True;True
860;Q475;89-30 114 STREET;Richmond Hill High School;2500;-73.9799602;40.6427092;True;True
862;Q480;101-01 ROCKAWAY BOULEVARD;John Adams Yabc;4000;-73.910951;40.679405;True;True
863;Q485;21-27 HIMROD STREET;Grover Cleveland High School;2000;-73.92543966666666;40.694542;True;True
866;Q505;160-05 HIGHLAND AVENUE;Hillcrest High School;4000;-74.0085231;40.5797844;True;True
868;Q520;45-35 VAN DAM STREET;Middle College High School at LaGuardia Community;1250;-73.937137;40.72644;True;True
869;Q566;74-20 COMMONWEALTH BLVD;Queens High School of Teaching, Liberal Arts and t;1250;-73.9877442;40.6672125;True;True
870;Q570;35-12 35TH AVENUE;Frank Sinatra School of the Arts High School;1000;-74.00753816901408;40.65722242253521;True;True
871;Q585;54-40 74TH STREET;Maspeth High School;1250;-74.03414816666667;40.633643666666664;True;True
872;Q595;162-02 HILLSIDE AVENUE;Queens Satellite High School for Opportunity;500;-73.9838167;40.6529924;True;True
873;Q600;37-02 47 AVENUE;Queens Vocational and Technical High School;1750;-73.97149594081063;40.6731384;True;True
874;Q610;45-30 36 STREET;Aviation Career & Technical Education High School;2500;-74.003549;40.655144;True;True
875;Q620;165-65 84 AVENUE;Thomas A. Edison Career and Technical Education Hi;2500;-73.91097613948526;40.657184900000004;True;True
876;Q633;171-10 LINDEN BOULEVARD;Eagle Academy for Young Men III;500;-73.95227074418605;40.652593558139536;True;True
879;Q680;150-91 87 ROAD;Young Women's Leadership School, Queens;750;-73.9973329;40.6912288;True;True
880;Q686;91-30 METROPOLITAN AVENUE;QUEENS METROPOLITAN HIGH SCHOOL;2500;-73.96363616666667;40.717006166666664;True;True
886;Q725;21-16 44TH ROAD;Information Technology High School;1000;-73.988905;40.590551;True;True
889;Q739;23-15 NEWTOWN AVENUE;Young Women's Leadership School, Astoria;750;-73.94683355068125;40.7339676;True;True
890;Q744;45-10 94TH STREET;VOYAGES Preparatory;1500;-74.03818573469387;40.61829863265306;True;True
891;Q774;94-50 159 STREET;Queens High School for the Sciences at York Colleg;500;-73.9283142;40.6152808;True;True
892;Q792;141-25 77TH ROAD;North Queens Community High School;250;-74.03258724489797;40.63110920408163;True;True
896;Q841;48-29 37TH STREET;PS 110;250;-73.9982244;40.6496763;True;True
900;Q877;76-05 51 AVENUE;The 51 Avenue Academy (The Path To Academic Excell;750;-73.97108948824466;40.70463145;True;True
902;Q891;47-07 30TH PLACE;Robert F. Wagner, Jr. Secondary School for Arts an;750;-74.00420671428571;40.65975263265306;True;True
904;QAPM;74-03 COMMONWEALTH BOULEVARD;P.S. Q023 @ Queens Children Center;500;-73.9877442;40.6672125;True;True
906;R001;58 SUMMIT STREET;P.S. 001 Tottenville;750;-74.00507275;40.68258575;True;True
914;R011;50 JEFFERSON STREET;P.S. 11 Thomas Dongan School;500;-73.93335375000001;40.698507;True;True
915;R013;191 VERMONT AVENUE;P.S. 013 M. L. Lindemeyer;1000;-73.894583;40.67506725;True;True
916;R014;100 TOMPKINS AVENUE;PS 78;1000;-73.94645;40.69557;True;True
918;R018;221 BROADWAY;P.S. 018 John G. Whittier;750;-73.958839625;40.7088485;True;True
919;R019;780 POST AVENUE;P.S. 019 The Curtis School;750;-73.9618368590604;40.58922305369127;True;True
920;R020;161 PARK AVENUE;P.S. 020 Port Richmond;500;-73.9730499171084;40.69634925;True;True
924;R024;225 CLEVELAND AVENUE;I.S. 024 Myra S. Barnes;1500;-73.88539533333334;40.67946422222222;True;True
925;R026;4108 VICTORY BOULEVARD;P.S. 026 The Carteret School;250;-73.94018375583727;40.6816932;True;True
926;R027;11 CLOVE LAKE PLACE;I.S. 027 Anning S. Prall;1250;-73.95041987755103;40.66515724489796;True;True
927;R029;1581 VICTORY BOULEVARD;P.S. 029 Bardwell;1000;-73.94018375583727;40.6816932;True;True
931;R034;528 ACADEMY AVENUE;I.S. 034 Tottenville;1250;-74.0364565;40.61351;True;True
934;R038;421 LINCOLN AVENUE;P.S. 038 George Cromwell;500;-73.86818635294118;40.679717705882354;True;True
940;R044;80 MAPLE PARKWAY;P.S. 044 Thomas C. Brown;1000;-73.95808600110318;40.66018715;True;True
941;R045;58 LAWRENCE AVENUE;P.S. 045 John Tyler;1000;-73.97630959374999;40.62925103125;True;True
942;R046;41 REID AVENUE;P.S. 046 Albert V. Maniscalco;500;-73.9311262;40.6927781;True;True
944;R049;101 WARREN STREET;The Eagle Academy for Young Men of Staten Island;1000;-73.998878;40.688524;True;True
953;R058;77 MARSH AVENUE;Space Shuttle Columbia School;1000;-73.93073094125882;40.603980500000006;True;True
954;R059;300 Richmond Terrace;The Harbor View School;250;-73.876616;40.682391;True;True
959;R072;33 FERNDALE AVENUE;I.S. 072 Rocco Laurie;1500;-73.9776703;40.6870231;True;True
963;R445;85 ST JOSEPHS AVENUE;Port Richmond High School;2000;-73.8902778;40.6802778;True;True
964;R450;105 HAMILTON AVENUE;Curtis High School;2500;-74.00510007142857;40.682204142857145;True;True
966;R460;1200 MANOR ROAD;Susan E. Wagner High School;4000;-74.0272308;40.6097445;True;True
968;R600;290 ST MARKS PLACE;Ralph R. McKee Career and Technical Education High;750;-73.979975;40.6818357;True;True
969;R722;155 TOMPKINS AVENUE;THE RICHARD H. HUNGERFORD SCHOOL;500;-73.94582250198367;40.69402335;True;True
973;R840;15 FAIRFIELD STREET;P.S. R037;500;-73.9835798505814;40.6805959;True;True
975;R880;715 OCEAN TERRACE;The Michael J. Petrides School;1500;-73.97119968325319;40.631406850000005;True;True
977;X002;1363 FULTON AVENUE;Eximius College Preparatory Academy: A College Boa;1000;-73.94675889013011;40.6804202;True;True
979;X004;1701 FULTON AVENUE;P.S./M.S. 004 Crotona Park West;1000;-73.931159;40.679443;True;True
988;X015;2195 ANDREWS AVENUE;P.S. X015 Institute for Environmental Learning;1250;-73.8772222;40.6852778;True;True
989;X016;4550 CARPENTER AVENUE;P.S. 016 Wakefield;750;-73.9680505;40.7125318;True;True
990;X018;502 MORRIS AVENUE;P.S. 018 John Peter Zenger;750;-73.9755691;40.6992262;True;True
992;X020;3050 WEBSTER AVENUE;PS/MS 20 P.O.George J. Werdann, III;1250;-73.976999;40.629871;True;True
995;X023;2151 WASHINGTON AVENUE;P.S. 023 The New Children's School;750;-73.9642984;40.680548;True;True
997;X025;811 EAST 149 STREET;P.S. 025 Bilingual School;750;-74.0127778;40.6197222;True;True
998;X026;1930 ANDREWS AVENUE;P.S. 396;1000;-73.8772222;40.6852778;True;True
1000;X028;1861 ANTHONY AVENUE;P.S. 028 Mount Hope;1000;-73.95351309820484;40.7295771;True;True
1004;X033;2424 JEROME AVENUE;P.S. 033 Timothy Dwight;1250;-73.94694428730513;40.58855639198218;True;True
1012;X042;1537 WASHINGTON AVENUE;P.S. 042 Claremont;500;-73.9642984;40.680548;True;True
1014;X044;1825 PROSPECT AVENUE;P.S. 044 David C. Farragut;750;-73.992872;40.665414;True;True
1023;X054;2703 WEBSTER AVENUE;P.S. / I.S. 54;750;-73.976999;40.629871;True;True
1024;X055;450 SAINT PAUL'S PLACE;P.S. 055 Benjamin Franklin;750;-73.99385418470149;40.6875564;True;True
1028;X059;2185 BATHGATE AVENUE;P.S. 059 The Community School of Technology;750;-73.9975252;40.59879064;True;True
1031;X062;660 FOX STREET;P.S. 062 Inocensio Casanova;1000;-73.9506011;40.6803199;True;True
1032;X063;1260 FRANKLIN AVENUE;P.S. 063 Author's Academy;750;-73.9579734;40.6706813;True;True
1040;X071;3040 ROBERTS AVENUE;P.S. 071 Rose E. Scala;1750;-73.984654;40.6905339;True;True
1041;X072;2951 DEWEY AVENUE;P.S. 072 Dr. William Dorney;1000;-73.98116657499443;40.587629;True;True
1046;X077;1250 WARD AVENUE;P.S. 196;2000;-73.9901038;40.6948675;True;True
1050;X080;3202 STEUBEN AVENUE;P.S./M.S. 280 Mosholu Parkway;1750;-73.963155;40.6938499;True;True
1051;X081;5550 RIVERDALE AVENUE;P.S. 081 Robert J. Christen;750;-73.916038;40.6598975;True;True
1055;X085;2400 MARION AVENUE;P.S. 085 Great Expectations;1250;-73.919574;40.680788;True;True
1056;X086;2756 RESERVOIR AVENUE;P.S. 086 Kingsbridge Heights;1750;-73.94256042857143;40.59134171428571;True;True
1058;X088;1340 SHERIDAN AVENUE;P.S. X088 - S. Silverstein Little Sparrow School;250;-73.866701;40.67747;True;True
1060;X090;1116 SHERIDAN AVENUE;The Family School;1250;-73.866701;40.67747;True;True
1063;X093;1535 STORY AVENUE;P.S. 093 Albert G. Oliver;500;-73.9068121;40.6969448;True;True
1064;X094;3530 KINGS COLLEGE PLACE;P.S. 094 Kings College School;1250;-73.9223828;40.6536987;True;True
1071;X101;2750 LAFAYETTE AVENUE;P.S. X010;1750;-73.9744304;40.6863074;True;True
1073;X103;4125 CARPENTER AVENUE;P.S. 103 Hector Fontanez;1250;-73.9680505;40.7125318;True;True
1074;X104;1449 SHAKESPEARE AVENUE;P.S. 199X - The Shakespeare School;1000;-73.9623212;40.6685331;True;True
1083;X113;3710 BARNES AVENUE;The Young Scholars Academy of The Bronx;1250;-73.9796234;40.6688903;True;True
1086;X116;977 FOX STREET;South Bronx Classical Charter School;1250;-73.9506011;40.6803199;True;True
1087;X117;1865 MORRIS AVENUE;Young Women's Leadership School of the Bronx;1000;-73.9755691;40.6992262;True;True
1091;X121;2750 THROOP AVENUE;P.S. 121 Throop;1250;-73.9490989;40.7047081;True;True
1098;X130;750 PROSPECT AVENUE;P.S. 130 Abram Stevens Hewitt;500;-73.992872;40.665414;True;True
1100;X132;1245 WASHINGTON AVENUE;P.S. 132 Garret A. Morgan;500;-73.9642984;40.680548;True;True
1101;X134;1330 BRISTOW STREET;P.S. 134 George F. Bristow;750;-73.98292432681441;40.668649;True;True
1104;X137;2225 WEBSTER AVENUE;Theatre Arts Production Company School;1250;-73.976999;40.629871;True;True
1105;X138;2060 LAFAYETTE AVENUE;P.S. 138 Samuel Randall;1000;-73.9744304;40.6863074;True;True
1106;X139;345 BROOK AVENUE;P.S. / I.S. 224;1250;-73.97230675;40.588235;True;True
1107;X140;916 EAGLE AVENUE;P.S. X140 The Eagle School;750;-73.9518616;40.7354658;True;True
1108;X141;660 WEST 237 STREET;Riverdale / Kingsbridge Academy (Middle School / H;1500;-73.9319444;40.7052778;True;True
1111;X144;2545 GUNTHER AVENUE;Pelham Gardens Middle School;1250;-73.9117589;40.6774659;True;True
1114;X147;1600 WEBSTER AVENUE;I.S. 339;1000;-73.976999;40.629871;True;True
1115;X148;3630 THIRD AVENUE;Kappa;1250;-74.0342795;40.6151352;True;True
1119;X152;1007 EVERGREEN AVENUE;P.S. 152 Evergreen;1000;-73.921994;40.693144;True;True
1121;X154;333 EAST 135 STREET;P.S. 154 Jonathan D. Hyatt;500;-73.88875439236973;40.58180885;True;True
1123;X156;750 CONCOURSE VILLAGE WEST;Performance School;1250;-73.98043122070698;40.57966495;True;True
1125;X158;800 HOME STREET;Dr. Richard Izquierdo Health and Science Charter S;1750;-73.9728196;40.6144421;True;True
1126;X159;2315 WASHINGTON AVENUE;P.S. 159 Luis Munoz Marin Biling;250;-73.9642984;40.680548;True;True
1130;X163;2075 WEBSTER AVENUE;P.S. 163 Arthur A. Schomburg;750;-73.976999;40.629871;True;True
1138;X177;3177 WEBSTER AVENUE;P469X - The Bronx School for Continuous Learners;1250;-73.976999;40.629871;True;True
1143;X183;339 MORRIS AVENUE;The Urban Assembly Bronx Academy of Letters;1500;-73.9755691;40.6992262;True;True
1146;X192;650 HOLLYWOOD AVENUE;Urban Institute of Mathematics;1000;-73.9115969;40.6928249;True;True
1147;X193;1919 PROSPECT AVENUE;P.S. 211;1250;-73.992872;40.665414;True;True
1148;X194;2365 WATERBURY AVE;PS/MS 194;1500;-73.9372091;40.7101524;True;True
1150;X205;2475 SOUTHERN BOULEVARD;P.S. 205 Fiorello Laguardia;1250;-73.9515147;40.7237585;True;True
1155;X234;2050 PROSPECT AVENUE;The School of Science and Applied Learning;750;-73.992872;40.665414;True;True
1157;X240;1501 JEROME AVENUE;Mount Eden Children's Academy;1250;-73.9492596;40.5880236;True;True
1158;X254;2452 WASHINGTON AVENUE;I.S. 254;500;-73.9642984;40.680548;True;True
1165;X340;25 WEST 195 STREET;P.S. 340;750;-73.9514399;40.7117855;True;True
1175;X420;1300 BOYNTON AVENUE;The Metropolitan Soundview High School;2000;-73.9755682;40.5899652;True;True
1178;X430;2780 RESERVOIR AVENUE;Walton Yabc;3000;-73.94241104081632;40.59135787755102;True;True
1182;X450;1980 LAFAYETTE AVENUE;Stevenson Yabc;3000;-73.9744304;40.6863074;True;True
1185;X465;4143 THIRD AVENUE;Eagle Academy for Young Men;750;-74.0342795;40.6151352;True;True
1189;X600;333 EAST 151 STREET;Bronx Haven High School;1500;-73.9726846;40.6778233;True;True
1191;X655;455 SOUTHERN BLVD;Samuel Gompers Career and Technical Education High;1250;-73.9515147;40.7237585;True;True
1196;X790;730 CONCOURSE VILLAGE WEST;Urban Assembly School for Careers in Sports;1750;-73.98043122070698;40.57966495;True;True
1198;X826;1950 SEDGWICK AVENUE;P.S. 226;750;-74.02941;40.639358;True;True
1199;X834;1330 BRISTOW STREET;The Vida Bogart School for All Children;750;-73.98292432681441;40.668649;True;True
1201;X843;2641 GRAND CONCOURSE;P.S. 246 Poe Center;1000;-73.9525653;40.6743416;True;True
1202;X852;3617 BAINBRIDGE AVENUE;Bronx Dance Academy School;500;-73.92563249039206;40.681826799999996;True;True
1203;X859;2246 JEROME AVENUE;P.S. 315 Lab School;500;-73.94704656792874;40.588517937639196;True;True
1204;X876;1710 WEBSTER AVENUE;Bronx Leadership Academy High School;750;-73.976999;40.629871;True;True
1212;X970;1595 BATHGATE AVENUE;Validus Preparatory Academy: An Expeditionary Lear;1500;-74.01092212;40.6068656;True;True
1213;X972;1440 STORY AVENUE;Felisa Rincon de Gautier Institute for Law and Pub;750;-73.9068121;40.6969448;True;True
1214;X973;1716 SOUTHERN BOULEVARD;East Bronx Academy for the Future;750;-73.9515147;40.7237585;True;True
1215;X991;560 BROOK AVENUE;Passages Academy;500;-73.965174;40.588856;True;True
